{
  "norad_id": 52366,
  "name": "STARLINK-3808",
  "history": [
    {
      "epoch": "2026-04-13T02:05:03.161760Z",
      "apogee_km": 540.801693979789,
      "perigee_km": 538.6931228121093,
      "latitude_deg": 2.572243298893611e-05,
      "longitude_deg": 162.15948037628596,
      "height_km": 540.6782299559485,
      "semi_major_axis_km": 6917.884408395949,
      "eccentricity": 0.0001524,
      "inclination_deg": 53.2175,
      "raan_deg": 34.7053,
      "arg_perigee_deg": 91.9208,
      "mean_anomaly_deg": 268.1959,
      "mean_motion_rev_day": 15.08838685
    },
    {
      "epoch": "2026-04-14T11:28:09.334848Z",
      "apogee_km": 540.5648405201327,
      "perigee_km": 538.9370614852623,
      "latitude_deg": 5.26113280222925e-06,
      "longitude_deg": 13.768570016209713,
      "height_km": 540.5474443691481,
      "semi_major_axis_km": 6917.887951002697,
      "eccentricity": 0.00011765,
      "inclination_deg": 53.2196,
      "raan_deg": 28.4612,
      "arg_perigee_deg": 82.9629,
      "mean_anomaly_deg": 277.1497,
      "mean_motion_rev_day": 15.08837526
    },
    {
      "epoch": "2026-04-15T11:18:56.507904Z",
      "apogee_km": 540.7180740232843,
      "perigee_km": 538.7878443668706,
      "latitude_deg": -4.794611000035007e-07,
      "longitude_deg": 10.63007471313612,
      "height_km": 540.4979830538949,
      "semi_major_axis_km": 6917.889959195078,
      "eccentricity": 0.00013951,
      "inclination_deg": 53.2182,
      "raan_deg": 23.9986,
      "arg_perigee_deg": 81.014,
      "mean_anomaly_deg": 279.101,
      "mean_motion_rev_day": 15.08836869
    },
    {
      "epoch": "2026-04-16T11:09:44.468064Z",
      "apogee_km": 540.9188936410474,
      "perigee_km": 538.7355841272556,
      "latitude_deg": -2.2135410350609402e-05,
      "longitude_deg": 7.492879204330259,
      "height_km": 540.5753493342447,
      "semi_major_axis_km": 6917.964238884151,
      "eccentricity": 0.0001578,
      "inclination_deg": 53.2195,
      "raan_deg": 19.5406,
      "arg_perigee_deg": 82.2331,
      "mean_anomaly_deg": 277.884,
      "mean_motion_rev_day": 15.08812568
    },
    {
      "epoch": "2026-04-17T17:22:03.824832Z",
      "apogee_km": 540.8122597337642,
      "perigee_km": 538.6981518756711,
      "latitude_deg": -1.5068608551203977e-05,
      "longitude_deg": -92.47795764212415,
      "height_km": 540.6214144651161,
      "semi_major_axis_km": 6917.892205804717,
      "eccentricity": 0.0001528,
      "inclination_deg": 53.2203,
      "raan_deg": 13.8909,
      "arg_perigee_deg": 88.3968,
      "mean_anomaly_deg": 271.7199,
      "mean_motion_rev_day": 15.08836134
    },
    {
      "epoch": "2026-04-17T23:43:36.120000Z",
      "apogee_km": 540.7505222951195,
      "perigee_km": 538.7360355578958,
      "latitude_deg": 1.7168397941348628e-06,
      "longitude_deg": 170.68743828925412,
      "height_km": 540.6552187785705,
      "semi_major_axis_km": 6917.880278926507,
      "eccentricity": 0.0001456,
      "inclination_deg": 53.2189,
      "raan_deg": 12.702,
      "arg_perigee_deg": 90.922,
      "mean_anomaly_deg": 269.1939,
      "mean_motion_rev_day": 15.08840036
    }
  ]
}